{
  "norad_id": 58625,
  "name": "STARLINK-30774",
  "history": [
    {
      "epoch": "2026-03-28T22:11:45.719808",
      "apogee_km": 484.2879131952859,
      "perigee_km": 481.8316047555727,
      "latitude_deg": 40.25667221463118,
      "longitude_deg": 131.28413312020712,
      "semi_major_axis_km": 6861.1967589754295,
      "eccentricity": 0.000179,
      "inclination_deg": 43.0061,
      "raan_deg": 318.421,
      "arg_perigee_deg": 269.5593,
      "mean_anomaly_deg": 90.5053,
      "mean_motion_rev_day": 15.27576439
    }
  ]
}