{"fetched_at":"2026-03-29T16:36:15Z","count":15609,"tles":[{"name":"STARLINK-30774","line1":"1 58625U 23203H   26087.92483472  .00002987  00000+0  11803-3 0  9999","line2":"2 58625  43.0061 318.4210 0001790 269.5593  90.5053 15.27576439126502","category":"Starlink"}]}